#cP2014  5 25  0  0  0.00000000      96 ORBIT IGb08 HLM  IGS
## 1794      0.00000000   900.00000000 56802 0.0000000000000
+   32   G01G02G03G04G05G06G07G08G09G10G11G12G13G14G15G16G17
+        G18G19G20G21G22G23G24G25G26G27G28G29G30G31G32  0  0
+          0  0  0  0  0  0  0  0  0  0  0  0  0  0  0  0  0
+          0  0  0  0  0  0  0  0  0  0  0  0  0  0  0  0  0
+          0  0  0  0  0  0  0  0  0  0  0  0  0  0  0  0  0
++         3  2  2  2  2  5  2  2  4  2  2  3  2  2  2  2  2
++         3  2  3  3  2  2  2  2  2  2  2  3  3  2  2  0  0
++         0  0  0  0  0  0  0  0  0  0  0  0  0  0  0  0  0
++         0  0  0  0  0  0  0  0  0  0  0  0  0  0  0  0  0
++         0  0  0  0  0  0  0  0  0  0  0  0  0  0  0  0  0
%c G  cc GPS ccc cccc cccc cccc cccc ccccc ccccc ccccc ccccc
%c cc cc ccc ccc cccc cccc cccc cccc ccccc ccccc ccccc ccccc
%f  1.2500000  1.025000000  0.00000000000  0.000000000000000
%f  0.0000000  0.000000000  0.00000000000  0.000000000000000
%i    0    0    0    0      0      0      0      0         0
%i    0    0    0    0      0      0      0      0         0
/* RAPID ORBIT COMBINATION FROM WEIGHTED AVERAGE OF:        
/* cod emr esa gfz jpl ngs sio usn whu                      
/* REFERENCED TO IGS TIME (IGST) AND TO WEIGHTED MEAN POLE: 
/* PCV:IGS08_1793 OL/AL:FES2004  NONE     Y  ORB:CMB CLK:CMB
*  2014  5 25 14 15  0.00000000
PG01 -20958.848189 -10223.512707  12814.556078     13.335356  7  9  6 118       
PG02  12484.190362  22311.120176   8367.238100    497.327854  7  6  6  87       
PG03 -14747.564100 -10269.572619 -20155.736846    369.476696  7  5  6 106       
PG04    225.248704  19498.773370  17620.793065      6.912326  5  7  6 112       
PG05   4977.072013  20862.052200 -15595.185777   -370.473087  5  2  5  93       
PG06 -21264.313553 -11026.285219  12100.664951      4.766631 15 17 15           
PG07 -16140.449494   2949.162123 -20886.326898    350.213685  7  6  3  90       
PG08 -10054.187738  10511.345382 -22013.770881     13.768068  6  7  6 101       
PG09  -6021.835067  14971.678853 -21592.644223    330.213369 13 12  7  89       
PG10  -7887.742086  25107.762992  -1044.938141   -127.026285  7  6  5 113       
PG11 -23727.861771 -11939.342523   1907.988424   -491.840450  6  8  6  99       
PG12  13728.395871   4943.397907  22121.297048    207.209190 10  5  8  95       
PG13 -26086.608775   4611.254575  -3043.611210     -3.754144  7  8  5  91       
PG14  14772.060119 -13871.199827  17309.072070    169.677950  9  4  6  96       
PG15  21342.028586   6014.570136 -14886.691004   -181.510437  5  5  8  99       
PG16  -3286.981653 -20643.439825 -16211.274815   -216.657600  9  8  6 109       
PG17 -13742.220394  14510.763034  17636.723899    -96.044046     6  5 114       
PG18  15949.765130 -15393.404015 -13932.976106    321.425592 10  8  9 107       
PG19 -19300.508241  -9139.708869 -16214.515474   -458.913232  6  7  8  99       
PG20 -15837.867284  -1899.611146  21048.803120    193.069323  8  6  7 102       
PG21  14346.672089  -6992.078071 -20642.542236   -363.157771  9  5  6  95       
PG22  10298.481466 -24155.349113  -3136.088015    236.920349  9  7  8  90       
PG23 -25204.630322  -1565.835116   9004.342457    -23.371904  7 10  6 103       
PG24  20959.477645  13817.122491   8797.959873    -28.983304  3  7  4  63       
PG25  16324.486761  -8947.272907  18816.669179     24.272116  9  6  7  66       
PG26  10357.277192  13355.186781 -21218.819817     67.756074  5  4  4  99       
PG27  -7851.547827 -13578.852968 -21447.411461    -14.520213  6  8  5 136       
PG28 -13123.110927  22071.508740  -5899.994168    357.421948  5  4  5 130       
PG29  25981.219852  -5119.173494  -1637.220861    535.027355 11  9  9 108       
PG30  -9350.201883  12583.117051 -21446.407477    -15.991510  8  7 10 100       
PG31  -3080.753538 -20735.634203  16268.870934    334.172910  7  7  6 104       
PG32  -8771.172654 -15649.058638  19806.782194   -421.339133  8  5  5  58       
*  2014  5 25 14 30  0.00000000
PG01 -21717.797329 -11333.541305  10408.194443     13.336383  8  9  6 123       
PG02  11568.418045  21738.480929  10858.658737    497.329767  7  6  7 113       
PG03 -12696.870862 -11202.180151 -21046.375018    369.482801  8  6  5 111       
PG04  -1411.356302  18064.007253  19035.339463      6.912606  6  7  7 116       
PG05   4294.569483  22401.259223 -13504.637109   -370.470868  6  2  6  75       
PG06 -21963.050352 -12042.634615   9632.733068      4.771628 15 17 16           
PG07 -17657.506991   1175.313925 -19840.435725    350.217412  7  6  4  82       
PG08 -11600.830157   8473.891340 -22183.429492     13.768279  6  7  6  79       
PG09  -7693.535703  13263.685009 -22202.109350    330.217994 13 12  8 116       
PG10  -8191.066543  24930.264319   1797.849389   -127.027074  6  7  6 117       
PG11 -23622.907095 -12378.325038   -787.985157   -491.843096  6  8  6  92       
PG12  12914.652019   7338.797036  21965.794348    207.211512 10  5  8  93       
PG13 -26278.550433   4441.772625   -171.665113     -3.757737  6  8  5  76       
PG14  16610.071287 -14014.948279  15383.045697    169.674474  9  3  7 100       
PG15  19665.246006   6693.024076 -16767.123742   -181.511982  5  6  8 113       
PG16  -2560.672030 -22224.061651 -14075.559567   -216.655640  9  7  6 109       
PG17 -15610.808777  14718.319026  15764.360042    -96.046952     6  5 123       
PG18  15724.857728 -13585.239819 -15899.803122    321.427917  9  8  8 124       
PG19 -17421.729590  -9534.750511 -17990.743984   -458.915284  6  7  7  99       
PG20 -15297.394124  -4302.649153  21099.928285    193.073185  9  6  7  85       
PG21  16007.142166  -5174.540911 -20008.115564   -363.159714  9  5  7 106       
PG22  10500.950836 -23531.534840  -5861.234178    236.922838  8  7  7  79       
PG23 -24135.621087  -2034.107320  11484.713645    -23.374789  6 10  6  78       
PG24  21379.900886  14600.998522   6130.053052    -28.984425  3  8  5  95       
PG25  15794.913504  -6764.701808  20140.478463     24.272522  9  7  7  86       
PG26   8060.021643  13712.567771 -21972.926487     67.745534  4  4  5 109       
PG27  -5457.499783 -14191.267001 -21785.776677    -14.518314  5  8  6  96       
PG28 -12990.318676  21154.025717  -8650.350414    357.424371  6  4  5 123       
PG29  26050.858025  -4893.719958   1238.764655    535.029730 11 10  9 105       
PG30 -10927.631604  10683.095414 -21732.241964    -15.996566  8  8 10  46       
PG31  -1676.785384 -19379.464259  18089.478296    334.172812  7  7  6 102       
PG32  -7881.876637 -17631.147667  18516.378666   -421.331708  8  5  6  61       
*  2014  5 25 14 45  0.00000000
PG01 -22328.754248 -12208.238461   7823.827706     13.337403  8  9  5 119       
PG02  10426.877604  21034.492891  13170.433666    497.331725  7  6  6  95       
PG03 -10624.332771 -12270.487016 -21592.690870    369.486579  8  6  4 114       
PG04  -3218.660384  16612.048271  20111.778520      6.912546  6  7  6 104       
PG05   3744.566734  23729.535934 -11180.293678   -370.468620  7  3  6  71       
PG06 -22507.773276 -12827.887883   7004.072996      4.776743 16 17 17  24       
PG07 -19168.294440   -414.688066 -18454.118836    350.221394  7  6  3  80       
PG08 -13255.908938   6535.120410 -21965.695739     13.768566  5  7  6  83       
PG09  -9492.022337  11622.850503 -22447.162418    330.221711 13 12  8 114       
PG10  -8427.302563  24453.169823   4608.745298   -127.028616  6  7  6 115       
PG11 -23267.335417 -12690.424629  -3470.621812   -491.846063  6  8  6  88       
PG12  12247.872891   9736.041837  21430.485132    207.213941  9  5  7 105       
PG13 -26161.010987   4220.542195   2703.191202     -3.761182  6  9  5  88       
PG14  18213.470091 -14205.487819  13194.262277    169.671631  8  2  7  77       
PG15  17838.105975   7516.976581 -18363.363867   -181.514242  4  6  7 110       
PG16  -1994.714018 -23596.641677 -11694.059155   -216.653924  9  6  6 114       
PG17 -17249.434283  14967.929445  13622.667511    -96.049652  2  6  5 108       
PG18  15535.952446 -11563.537100 -17580.469486    321.430017  9  7  8 125       
PG19 -15386.646254 -10068.069479 -19465.496788   -458.917265  7  7  7 103       
PG20 -14871.128358  -6712.386237  20781.971022    193.076508  9  6  7  90       
PG21  17676.484577  -3504.562307 -19012.591771   -363.161451  9  6  8  87       
PG22  10665.688509 -22621.419539  -8483.947091    236.925845  8  8  7  83       
PG23 -22835.988430  -2632.702724  13772.796621    -23.377366  6 10  6  85       
PG24  21613.645248  15154.374112   3357.174985    -28.985350  3  8  5  67       
PG25  15355.416477  -4429.856815  21114.346434     24.272941  9  7  7  80       
PG26   5723.370639  14211.703896 -22372.049338     67.734846  4  4  6 105       
PG27  -3082.043959 -14933.902455 -21749.564531    -14.516416  6  8  6 102       
PG28 -12823.155145  19931.939316 -11247.118417    357.426789  5  4  4 119       
PG29  25816.902926  -4593.951311   4093.374257    535.032002 10 10  9 103       
PG30 -12608.716639   8859.303509 -21644.447536    -16.001605  7  8 10           
PG31    -69.408121 -17970.794860  19598.919480    334.172809  7  7  5 104       
PG32  -7146.622751 -19498.693310  16914.225759   -421.324363  8  5  6  86       
EOF
